ARKTIKA-M 2             
1 58584U 23198A   25062.19393504  .00000162  00000+0  00000+0 0  9999
2 58584  63.2359 206.0334 6889758 269.2176  18.1238  2.00607671  8866
FREGAT R/B              
1 58585U 23198B   25062.54254569  .00001435  00000+0  00000+0 0  9990
2 58585  63.2436 205.8243 6929494 268.5850  18.0365  1.99044200  8817
OVZON-3                 
1 58698U 24003A   25064.41016889  .00000044  00000+0  00000+0 0  9995
2 58698   0.0090 174.3785 0001397 185.4061  10.9558  1.00271926  2735
FALCON 9 R/B            
1 58699U 24003B   25064.44134845  .00000148  00000+0  34237-2 0  9999
2 58699  25.8046 183.0846 7700969   7.1211 359.2208  1.68443186  7179
INSAT-3DS               
1 58990U 24033A   25064.38794534 -.00000163  00000+0  00000+0 0  9992
2 58990   0.0528 266.0491 0002004  78.2331  40.8030  1.00271625 42360
MERAH PUTIH 2           
1 58995U 24035A   25064.52544933 -.00000365  00000+0  00000+0 0  9995
2 58995   0.0147 227.1025 0000826 144.5634  93.9269  1.00269400  3892
FALCON 9 R/B            
1 58996U 24035B   25062.53873956 -.00000263  00000+0  65065-3 0  9998
2 58996  19.3839 202.4424 7946659 331.7879   1.8170  1.39501657  5238
TJS-11                  
1 59020U 24037A   25064.75352647 -.00000373  00000+0  00000+0 0  9990
2 59020   4.8897 322.5991 0004420  39.9074 192.8110  1.00269121  3903
HULIANWAN GAOGUI-01 (H*)
1 59069U 24040A   25064.04003152  .00000150  00000+0  00000+0 0  9995
2 59069   0.0349  34.2563 0007929 305.2209 231.6261  1.00269269  2624
EUTELSAT 36D            
1 59346U 24059A   25064.23170029  .00000149  00000+0  00000+0 0  9990
2 59346   0.0186 135.7968 0000370 174.0161 332.6734  1.00271250  3440
FALCON 9 R/B            
1 59347U 24059B   25054.47053050 -.00000054  00000+0  24820-3 0  9996
2 59347  25.5319 288.6670 8151802 280.1005   6.4935  1.24135478  4043
PAKSAT-MM1              
1 59915U 24104A   25064.42127876  .00000146  00000+0  00000+0 0  9993
2 59915   0.0120 147.4355 0001716 201.0743   4.7479  1.00272995  2823
TITAN 3C TRANSTAGE DEB  
1 59978U 68081AL  25049.22572458  .00000046  00000+0  00000+0 0  9994
2 59978   1.2209  39.4931 0106308 256.8879 102.7851  1.02042093 24872
TITAN 3C TRANSTAGE DEB  
1 59982U 68081AQ  25042.73596541 -.00000344  00000+0  00000+0 0  9999
2 59982   1.6634   0.8251 0764180 282.6076  69.7344  0.99568135 14226
TITAN 3C TRANSTAGE DEB  
1 59983U 68081AR  25049.84239971 -.00000137  00000+0  00000+0 0  9990
2 59983   1.6511  50.8609 0212455  11.3202 349.7154  1.02072608  3020
HIMAWARI 1 AKM          
1 59985U 77065GQ  25063.33388846  .00000037  00000+0  00000+0 0  9998
2 59985   5.3992 279.9918 0272976 106.7016 256.1418  1.01118388 41693
EKRAN 2 DEB             
1 59986U 77092M   25063.47532411  .00000001  00000+0  00000+0 0  9994
2 59986   4.9795 277.8823 0041660  99.5039 115.8246  1.00930828 41780
EKRAN 2 DEB             
1 59987U 77092N   25062.63353153 -.00000312  00000+0  00000+0 0  9992
2 59987   5.3367 280.3064 0013067 209.0593 358.4218  1.00374029 58394
EKRAN 2 DEB             
1 59988U 77092P   25062.96447741 -.00000157  00000+0  00000+0 0  9993
2 59988   5.1432 278.3157 0050666  58.6633 137.8610  1.00875105 70306
OPS 9442 (DSCS 2-12) DEB
1 59989U 78113E   25061.26672581  .00000029  00000+0  00000+0 0  9990
2 59989   9.2155 305.9837 0171427  73.2131 288.6213  0.98454126 40573
OPS 9442 (DSCS 2-12) DEB
1 59990U 78113F   25061.76406353 -.00000052  00000+0  00000+0 0  9996
2 59990   9.4456 306.0309 0150006 112.3833  51.6232  0.98217630 40465
OPS 9442 (DSCS 2-12) DEB
1 59991U 78113G   25062.46743877 -.00000021  00000+0  00000+0 0  9996
2 59991   9.1519 306.7569 0150751 130.8943 104.8708  0.98450905 39553
OPS 9442 (DSCS 2-12) DEB
1 59992U 78113H   25061.03529231 -.00000266  00000+0  00000+0 0  9996
2 59992   9.3899 306.4916 0231888  86.6185 100.1074  0.98334194 54246
VELA 9/10 INTERSTAGE    
1 60001U 69046G   25061.86446467 -.00000501  00000+0  00000+0 0  9996
2 60001  15.9233  30.4750 8099755 265.1301   1.1374  0.46177581  4865
VELA 11/12 INTERSTAGE   
1 60002U 70027D   25060.73841819 -.00000690  00000+0  00000+0 0  9992
2 60002  17.6067  37.5907 7964783 273.4852   0.7583  0.45903087 18854
ASTRA 1P (SES-24)       
1 60086U 24115A   25064.30322600  .00000113  00000+0  00000+0 0  9999
2 60086   0.0855 312.6074 0005037   6.4606 332.5589  1.00270179  2497
FALCON 9 R/B            
1 60087U 24115B   25062.67731854  .00000029  00000+0  74998-3 0  9990
2 60087  28.9036  12.9448 7958868 262.8054  11.6949  1.43711170  3689
GOES 19                 
1 60133U 24119A   25064.42753125 -.00000189  00000+0  00000+0 0  9993
2 60133   0.0195 330.9160 0001990  19.4143 237.4955  1.00270263  2269
ZHONGXING-3A            
1 60179U 24122A   25064.57932172 -.00000321  00000+0  00000+0 0  9992
2 60179   0.0114 106.1319 0001402 191.7217 175.8260  1.00270537  2610
TURKSAT 6A              
1 60233U 24127A   25064.42127876  .00000139  00000+0  00000+0 0  9995
2 60233   0.0631 240.2093 0002267  52.1728  64.6689  1.00272099  2313
FALCON 9 R/B            
1 60234U 24127B   25060.93871645 -.00000352  00000+0 -10309-2 0  9993
2 60234  25.7473  79.9230 8295281 236.2135  18.9082  1.03875128  2186
YZ-1S R/B               
1 60326U 24048E   25041.66079388 -.00001598  00000+0  17066-2 0  9999
2 60326  25.3998 346.6199 9030429 176.4375 358.7382  0.46175850  1400
HULIANWAN GAOGUI-02 (H*)
1 60327U 24135A   25064.18516971 -.00000180  00000+0  00000+0 0  9996
2 60327   0.0220 148.7699 0001899 119.1169 114.9866  1.00273037  2799
ASBM-2                  
1 60423U 24143B   25043.88818933 -.00000057  00000+0  00000+0 0  9992
2 60423  62.4426  64.1627 5387766 268.3260  32.3910  1.50426150  4248
ZHONGXING-4A            
1 60606U 24151A   25064.52544933 -.00000370  00000+0  00000+0 0  9992
2 60606   2.5258 276.1243 0002528  71.7661 122.9462  1.00267670  2054
HULIANWAN GAOGUI-03 (H*)
1 61503U 24181A   25063.58211538 -.00000247  00000+0  00000+0 0  9992
2 61503   0.0221 164.4500 0000833 172.0225 318.4728  1.00283956  2116
DSN-3 (KIRAMEKI-3)      
1 61733U 24198A   25062.73100402 -.00000254  00000+0  00000+0 0  9996
2 61733   0.0196 109.8451 0001371 222.9176 236.1876  1.00271734  1208
KOREASAT 6A             
1 61910U 24206A   25063.98517010 -.00000368  00000+0  00000+0 0  9994
2 61910   0.0169 152.2713 0000063 191.5631 289.7981  1.00271436  1134
INTELSAT 33E DEB        
1 61988U 16053E   25061.96383852  .00000122  00000+0  00000+0 0  9998
2 61988   0.5561 123.2886 0040838 107.2446 129.1207  0.99842456  1334
INTELSAT 33E DEB        
1 61990U 16053G   25062.89152789 -.00000123  00000+0  00000+0 0  9999
2 61990   0.3202  50.8211 0174144 305.5779   3.4518  1.01376454  1371
INTELSAT 33E DEB        
1 61991U 16053H   25063.95843831 -.00000039  00000+0  00000+0 0  9999
2 61991   0.5125 119.0479 0122992 219.6686  20.7528  1.02041661  1405
INTELSAT 33E DEB        
1 61992U 16053J   25063.66399980 -.00000214  00000+0  00000+0 0  9994
2 61992   0.3521  93.0503 0056219 261.1098   5.7512  1.00794940  1386
INTELSAT 33E DEB        
1 61993U 16053K   25064.10923272  .00000020  00000+0  00000+0 0  9996
2 61993   0.3241  52.4486 0097500 326.2749 341.6059  1.01196619  1398
INTELSAT 33E DEB        
1 61994U 16053L   25064.05937062  .00000049  00000+0  00000+0 0  9994
2 61994   0.3754  99.1467 0025013 192.4453  68.1193  1.00489691  1372
INTELSAT 33E DEB        
1 61995U 16053M   25063.33956773 -.00000244  00000+0  00000+0 0  9993
2 61995   0.3356  87.9747 0053950 269.8244   2.1542  1.01043184  1386
INTELSAT 33E DEB        
1 61996U 16053N   25046.03797800  .00000131  00000+0  00000+0 0  9990
2 61996   0.4069  18.7924 0054117   0.9516 340.4290  1.00601379  1204
INTELSAT 33E DEB        
1 61997U 16053P   25062.56980450  .00000033  00000+0  00000+0 0  9993
2 61997   0.3697  99.8779 0103907 245.8407  13.9674  1.01608928  1385
INTELSAT 33E DEB        
1 61998U 16053Q   25062.17784924 -.00000301  00000+0  00000+0 0  9998
2 61998   0.3391  89.6338 0037177 256.8181  13.4271  1.00389832  1377
INTELSAT 33E DEB        
1 61999U 16053R   25062.76473507 -.00000207  00000+0  00000+0 0  9991
2 61999   0.3221  57.0485 0114631  46.2431 257.9634  0.99256134  1342
INTELSAT 33E DEB        
1 62000U 16053S   25059.55751598 -.00000037  00000+0  00000+0 0  9998
2 62000   0.5193 120.3505 0103665 266.0663 334.0798  1.00157816  1334
INTELSAT 33E DEB        
1 62001U 16053T   25064.26944958 -.00000322  00000+0  00000+0 0  9994
2 62001   0.4496  21.0600 0060403  17.3378 322.0043  1.00337579  1386
INTELSAT 33E DEB        
1 62003U 16053V   25063.15353143 -.00000242  00000+0  00000+0 0  9994
2 62003   0.4214 108.1360 0026458 229.4312  22.2956  1.00409824  1365
INTELSAT 33E DEB        
1 62004U 16053W   25063.56684327 -.00000092  00000+0  00000+0 0  9994
2 62004   1.6331 145.3862 0205790 232.1517 126.1154  1.02630004  1390
INTELSAT 33E DEB        
1 62005U 16053X   25063.51351999 -.00000078  00000+0  00000+0 0  9990
2 62005   0.6519 128.5766 0301283 203.4665  26.3487  1.04568930  1405
OPTUS-X (ADS-01)        
1 62006U 24212A   25063.74002963 -.00000249  00000+0  00000+0 0  9996
2 62006   0.0382 266.1341 0010247 119.7857 131.4521  1.00421305  1053
FALCON 9 R/B            
1 62007U 24212B   25063.77607260  .00001236  00000+0  18036-2 0  9998
2 62007  17.1371 194.2452 7865629 228.7207  31.3232  1.56479286  1682
GSAT-N2 (GSAT-20)       
1 62028U 24214A   25064.48864144 -.00000026  00000+0  00000+0 0  9994
2 62028   0.0466 266.5321 0001001  35.9344 104.8287  1.00268616  1192
FALCON 9 R/B            
1 62029U 24214B   25062.61555774  .00061002 -32689-6  11207-1 0  9993
2 62029  27.6647 149.5695 8151580 210.4672  53.1391  1.29479924  1338
TJS-13                  
1 62188U 24227A   25056.86749121  .00000550  00000+0  00000+0 0  9996
2 62188  63.4472  96.7323 7000919 269.5684  17.1107  2.00630254  1694
PROBA-3 CSC             
1 62256U 24233A   25064.02150912 -.00000325  00000+0  17226-2 0  9992
2 62256  59.2579 138.2517 8092832 191.1031 121.3695  1.22067772  1096
